[{"OBJECT_NAME":"CENTISPACE-1 S14","OBJECT_ID":"2025-007J","EPOCH":"2026-03-09T22:41:11.943168","MEAN_MOTION":13.82921817,"ECCENTRICITY":0.00089806,"INCLINATION":54.9841,"RA_OF_ASC_NODE":279.64,"ARG_OF_PERICENTER":292.176,"MEAN_ANOMALY":67.8244,"EPHEMERIS_TYPE":0,"CLASSIFICATION_TYPE":"U","NORAD_CAT_ID":62583,"ELEMENT_SET_NO":999,"REV_AT_EPOCH":6100,"BSTAR":0.00010890491,"MEAN_MOTION_DOT":-2.2e-7,"MEAN_MOTION_DDOT":0},{"OBJECT_NAME":"COSMOS 846","OBJECT_ID":"1976-078A","EPOCH":"2026-03-09T17:05:18.680928","MEAN_MOTION":13.76644677,"ECCENTRICITY":0.00426955,"INCLINATION":82.9324,"RA_OF_ASC_NODE":134.702,"ARG_OF_PERICENTER":95.4334,"MEAN_ANOMALY":18.5285,"EPHEMERIS_TYPE":0,"CLASSIFICATION_TYPE":"U","NORAD_CAT_ID":9061,"ELEMENT_SET_NO":999,"REV_AT_EPOCH":76154,"BSTAR":4.659537e-5,"MEAN_MOTION_DOT":6.2e-7,"MEAN_MOTION_DDOT":0}]
